[{"OBJECT_NAME":"HAWK-3B","OBJECT_ID":"2021-059BE","EPOCH":"2026-03-09T11:39:39.463488","MEAN_MOTION":15.61552399,"ECCENTRICITY":0.0005147,"INCLINATION":97.6723,"RA_OF_ASC_NODE":256.3511,"ARG_OF_PERICENTER":338.9572,"MEAN_ANOMALY":21.1472,"EPHEMERIS_TYPE":0,"CLASSIFICATION_TYPE":"U","NORAD_CAT_ID":48931,"ELEMENT_SET_NO":999,"REV_AT_EPOCH":26225,"BSTAR":0.00046889102,"MEAN_MOTION_DOT":0.00040225,"MEAN_MOTION_DDOT":0},{"OBJECT_NAME":"JILIN-1 GAOFEN 3D28","OBJECT_ID":"2022-048C","EPOCH":"2026-03-09T22:23:52.171008","MEAN_MOTION":15.60004375,"ECCENTRICITY":0.00030881,"INCLINATION":97.5571,"RA_OF_ASC_NODE":175.2949,"ARG_OF_PERICENTER":82.8253,"MEAN_ANOMALY":277.3354,"EPHEMERIS_TYPE":0,"CLASSIFICATION_TYPE":"U","NORAD_CAT_ID":52445,"ELEMENT_SET_NO":999,"REV_AT_EPOCH":21397,"BSTAR":0.0010117511,"MEAN_MOTION_DOT":0.00082331,"MEAN_MOTION_DDOT":0}]
